start=new Date('2023-02-20T00:00:00.000Z').valueOf();
sats=[{"CENTER_NAME":"EARTH","SITE":"AFETR","CLASSIFICATION_TYPE":"U","SEMIMAJOR_AXIS":"6925.274","DECAY_DATE":null,"TLE_LINE2":"2 44713  53.0518 148.1338 0001158  80.9817 279.1303 15.06424481180828","TLE_LINE1":"1 44713U 19074A   23050.56251478  .00022314  00000-0  15112-2 0  9992","OBJECT_TYPE":"PAYLOAD","OBJECT_NAME":"STARLINK-1007","MEAN_ELEMENT_THEORY":"SGP4","INCLINATION":"53.0518","ECCENTRICITY":"0.00011580","APOAPSIS":"547.940","REF_FRAME":"TEME","NORAD_CAT_ID":"44713","FILE":"3811610","RCS_SIZE":"LARGE","EPHEMERIS_TYPE":"0","MEAN_MOTION_DDOT":"0.0000000000000","COUNTRY_CODE":"US","ARG_OF_PERICENTER":"80.9817","LAUNCH_DATE":"2019-11-11","EPOCH":"2023-02-19T13:30:01.276992","MEAN_MOTION":"15.06424481","MEAN_ANOMALY":"279.1303","BSTAR":"0.00151120000000","TIME_SYSTEM":"UTC","GP_ID":"226042454","ELEMENT_SET_NO":"999","PERIAPSIS":"546.337","REV_AT_EPOCH":"18082","MEAN_MOTION_DOT":"0.00022314","OBJECT_ID":"2019-074A","PERIOD":"95.591","RA_OF_ASC_NODE":"148.1338"},{"MEAN_ANOMALY":"273.3525","BSTAR":"0.00202350000000","TIME_SYSTEM":"UTC","ARG_OF_PERICENTER":"86.7629","MEAN_MOTION":"15.06486206","LAUNCH_DATE":"2019-11-11","EPOCH":"2023-02-19T17:46:04.995840","PERIAPSIS":"545.948","ELEMENT_SET_NO":"999","REV_AT_EPOCH":"18102","MEAN_MOTION_DOT":"0.00030058","RA_OF_ASC_NODE":"147.3326","PERIOD":"95.587","OBJECT_ID":"2019-074B","GP_ID":"226060465","OBJECT_TYPE":"PAYLOAD","TLE_LINE1":"1 44714U 19074B   23050.74033560  .00030058  00000-0  20235-2 0  9999","DECAY_DATE":null,"TLE_LINE2":"2 44714  53.0535 147.3326 0001446  86.7629 273.3525 15.06486206181029","OBJECT_NAME":"STARLINK-1008","MEAN_ELEMENT_THEORY":"SGP4","INCLINATION":"53.0535","SITE":"AFETR","CENTER_NAME":"EARTH","SEMIMAJOR_AXIS":"6925.084","CLASSIFICATION_TYPE":"U","COUNTRY_CODE":"US","MEAN_MOTION_DDOT":"0.0000000000000","APOAPSIS":"547.951","ECCENTRICITY":"0.00014460","EPHEMERIS_TYPE":"0","NORAD_CAT_ID":"44714","REF_FRAME":"TEME","RCS_SIZE":"LARGE","FILE":"3812062"},{"GP_ID":"226043954","MEAN_MOTION_DOT":"0.00012321","PERIAPSIS":"546.086","REV_AT_EPOCH":"18081","ELEMENT_SET_NO":"999","OBJECT_ID":"2019-074C","RA_OF_ASC_NODE":"148.2743","PERIOD":"95.592","ARG_OF_PERICENTER":"94.4432","EPOCH":"2023-02-19T12:43:37.343712","LAUNCH_DATE":"2019-11-11","MEAN_MOTION":"15.06406966","BSTAR":"0.00084447000000","MEAN_ANOMALY":"265.6739","TIME_SYSTEM":"UTC","ECCENTRICITY":"0.00015970","APOAPSIS":"548.298","FILE":"3811610","RCS_SIZE":"LARGE","NORAD_CAT_ID":"44715","REF_FRAME":"TEME","EPHEMERIS_TYPE":"0","MEAN_MOTION_DDOT":"0.0000000000000","COUNTRY_CODE":"US","SITE":"AFETR","CENTER_NAME":"EARTH","CLASSIFICATION_TYPE":"U","SEMIMAJOR_AXIS":"6925.327","TLE_LINE2":"2 44715  53.0525 148.2743 0001597  94.4432 265.6739 15.06406966180819","DECAY_DATE":null,"OBJECT_TYPE":"PAYLOAD","TLE_LINE1":"1 44715U 19074C   23050.53029333  .00012321  00000-0  84447-3 0  9999","MEAN_ELEMENT_THEORY":"SGP4","INCLINATION":"53.0525","OBJECT_NAME":"STARLINK-1009"},{"GP_ID":"226042704","RA_OF_ASC_NODE":"148.1926","PERIOD":"95.589","OBJECT_ID":"2019-074D","MEAN_MOTION_DOT":"0.00026563","PERIAPSIS":"546.254","REV_AT_EPOCH":"18080","ELEMENT_SET_NO":"999","MEAN_MOTION":"15.06448355","EPOCH":"2023-02-19T13:10:07.847616","LAUNCH_DATE":"2019-11-11","ARG_OF_PERICENTER":"87.8136","TIME_SYSTEM":"UTC","BSTAR":"0.00179310000000","MEAN_ANOMALY":"272.2987","EPHEMERIS_TYPE":"0","FILE":"3811610","RCS_SIZE":"LARGE","REF_FRAME":"TEME","NORAD_CAT_ID":"44716","APOAPSIS":"547.877","ECCENTRICITY":"0.00011720","COUNTRY_CODE":"US","MEAN_MOTION_DDOT":"0.0000000000000","SEMIMAJOR_AXIS":"6925.200","CLASSIFICATION_TYPE":"U","CENTER_NAME":"EARTH","SITE":"AFETR","MEAN_ELEMENT_THEORY":"SGP4","INCLINATION":"53.0533","OBJECT_NAME":"STARLINK-1010","TLE_LINE1":"1 44716U 19074D   23050.54870194  .00026563  00000-0  17931-2 0  9996","OBJECT_TYPE":"PAYLOAD","TLE_LINE2":"2 44716  53.0533 148.1926 0001172  87.8136 272.2987 15.06448355180803","DECAY_DATE":null},{"INCLINATION":"53.0521","MEAN_ELEMENT_THEORY":"SGP4","OBJECT_NAME":"STARLINK-1011","OBJECT_TYPE":"PAYLOAD","TLE_LINE1":"1 44717U 19074E   23050.74592916  .00026889  00000-0  18178-2 0  9997","TLE_LINE2":"2 44717  53.0521 167.3086 0001379  72.2438 287.8701 15.06387345180743","DECAY_DATE":null,"SEMIMAJOR_AXIS":"6925.387","CLASSIFICATION_TYPE":"U","SITE":"AFETR","CENTER_NAME":"EARTH","COUNTRY_CODE":"US","MEAN_MOTION_DDOT":"0.0000000000000","EPHEMERIS_TYPE":"0","RCS_SIZE":"LARGE","FILE":"3812547","NORAD_CAT_ID":"44717","REF_FRAME":"TEME","APOAPSIS":"548.207","ECCENTRICITY":"0.00013790","TIME_SYSTEM":"UTC","BSTAR":"0.00181780000000","MEAN_ANOMALY":"287.8701","MEAN_MOTION":"15.06387345","EPOCH":"2023-02-19T17:54:08.279424","LAUNCH_DATE":"2019-11-11","ARG_OF_PERICENTER":"72.2438","PERIOD":"95.593","RA_OF_ASC_NODE":"167.3086","OBJECT_ID":"2019-074E","MEAN_MOTION_DOT":"0.00026889","ELEMENT_SET_NO":"999","PERIAPSIS":"546.297","REV_AT_EPOCH":"18074","GP_ID":"226069007"},{"ECCENTRICITY":"0.00011210","APOAPSIS":"547.940","REF_FRAME":"TEME","NORAD_CAT_ID":"44718","RCS_SIZE":"LARGE","FILE":"3811610","EPHEMERIS_TYPE":"0","MEAN_MOTION_DDOT":"0.0000000000000","COUNTRY_CODE":"US","CENTER_NAME":"EARTH","SITE":"AFETR","CLASSIFICATION_TYPE":"U","SEMIMAJOR_AXIS":"6925.298","DECAY_DATE":null,"TLE_LINE2":"2 44718  53.0516 148.0256 0001121  85.8998 274.2119 15.06416367180828","TLE_LINE1":"1 44718U 19074F   23050.58557772  .00016281  00000-0  11089-2 0  9990","OBJECT_TYPE":"PAYLOAD","OBJECT_NAME":"STARLINK-1012","MEAN_ELEMENT_THEORY":"SGP4","INCLINATION":"53.0516","GP_ID":"226043206","PERIAPSIS":"546.387","ELEMENT_SET_NO":"999","REV_AT_EPOCH":"18082","MEAN_MOTION_DOT":"0.00016281","OBJECT_ID":"2019-074F","PERIOD":"95.591","RA_OF_ASC_NODE":"148.0256","ARG_OF_PERICENTER":"85.8998","LAUNCH_DATE":"2019-11-11","EPOCH":"2023-02-19T14:03:13.915008","MEAN_MOTION":"15.06416367","MEAN_ANOMALY":"274.2119","BSTAR":"0.00110890000000","TIME_SYSTEM":"UTC"},{"PERIAPSIS":"546.341","ELEMENT_SET_NO":"999","REV_AT_EPOCH":"18194","MEAN_MOTION_DOT":"0.00022114","OBJECT_ID":"2019-074G","PERIOD":"95.591","RA_OF_ASC_NODE":"148.2965","GP_ID":"226043455","MEAN_ANOMALY":"282.7175","BSTAR":"0.00149820000000","TIME_SYSTEM":"UTC","ARG_OF_PERICENTER":"77.3947","LAUNCH_DATE":"2019-11-11","EPOCH":"2023-02-19T12:38:19.502304","MEAN_MOTION":"15.06416310","MEAN_MOTION_DDOT":"0.0000000000000","COUNTRY_CODE":"US","ECCENTRICITY":"0.00011880","APOAPSIS":"547.986","NORAD_CAT_ID":"44719","REF_FRAME":"TEME","FILE":"3811610","RCS_SIZE":"LARGE","EPHEMERIS_TYPE":"0","DECAY_DATE":null,"TLE_LINE2":"2 44719  53.0507 148.2965 0001188  77.3947 282.7175 15.06416310181949","OBJECT_TYPE":"PAYLOAD","TLE_LINE1":"1 44719U 19074G   23050.52661461  .00022114  00000-0  14982-2 0  9993","OBJECT_NAME":"STARLINK-1013","INCLINATION":"53.0507","MEAN_ELEMENT_THEORY":"SGP4","SITE":"AFETR","CENTER_NAME":"EARTH","CLASSIFICATION_TYPE":"U","SEMIMAJOR_AXIS":"6925.299"},{"PERIOD":"95.591","RA_OF_ASC_NODE":"148.2073","OBJECT_ID":"2019-074H","PERIAPSIS":"546.327","ELEMENT_SET_NO":"999","REV_AT_EPOCH":"18082","MEAN_MOTION_DOT":"0.00024554","GP_ID":"226042207","TIME_SYSTEM":"UTC","MEAN_ANOMALY":"280.4798","BSTAR":"0.00166090000000","MEAN_MOTION":"15.06415280","LAUNCH_DATE":"2019-11-11","EPOCH":"2023-02-19T13:03:29.311200","ARG_OF_PERICENTER":"79.6328","COUNTRY_CODE":"US","MEAN_MOTION_DDOT":"0.0000000000000","EPHEMERIS_TYPE":"0","NORAD_CAT_ID":"44720","REF_FRAME":"TEME","RCS_SIZE":"LARGE","FILE":"3811610","APOAPSIS":"548.007","ECCENTRICITY":"0.00012130","OBJECT_NAME":"STARLINK-1014","INCLINATION":"53.0520","MEAN_ELEMENT_THEORY":"SGP4","OBJECT_TYPE":"PAYLOAD","TLE_LINE1":"1 44720U 19074H   23050.54408925  .00024554  00000-0  16609-2 0  9999","DECAY_DATE":null,"TLE_LINE2":"2 44720  53.0520 148.2073 0001213  79.6328 280.4798 15.06415280180820","SEMIMAJOR_AXIS":"6925.302","CLASSIFICATION_TYPE":"U","CENTER_NAME":"EARTH","SITE":"AFETR"},{"SITE":"AFETR","CENTER_NAME":"EARTH","SEMIMAJOR_AXIS":"6925.183","CLASSIFICATION_TYPE":"U","OBJECT_TYPE":"PAYLOAD","TLE_LINE1":"1 44721U 19074J   23050.66664948  .00028750  00000-0  19383-2 0  9996","TLE_LINE2":"2 44721  53.0525 147.6637 0001243  98.9212 261.1918 15.06453924181002","DECAY_DATE":null,"MEAN_ELEMENT_THEORY":"SGP4","INCLINATION":"53.0525","OBJECT_NAME":"STARLINK-1015","APOAPSIS":"547.909","ECCENTRICITY":"0.00012430","EPHEMERIS_TYPE":"0","RCS_SIZE":"LARGE","FILE":"3812044","REF_FRAME":"TEME","NORAD_CAT_ID":"44721","COUNTRY_CODE":"US","MEAN_MOTION_DDOT":"0.0000000000000","ARG_OF_PERICENTER":"98.9212","MEAN_MOTION":"15.06453924","EPOCH":"2023-02-19T15:59:58.515072","LAUNCH_DATE":"2019-11-11","BSTAR":"0.00193830000000","MEAN_ANOMALY":"261.1918","TIME_SYSTEM":"UTC","GP_ID":"226060505","MEAN_MOTION_DOT":"0.00028750","PERIAPSIS":"546.187","REV_AT_EPOCH":"18100","ELEMENT_SET_NO":"999","PERIOD":"95.589","RA_OF_ASC_NODE":"147.6637","OBJECT_ID":"2019-074J"},{"ECCENTRICITY":"0.00012590","APOAPSIS":"548.025","REF_FRAME":"TEME","NORAD_CAT_ID":"44723","FILE":"3812171","RCS_SIZE":"LARGE","EPHEMERIS_TYPE":"0","MEAN_MOTION_DDOT":"0.0000000000000","COUNTRY_CODE":"US","SITE":"AFETR","CENTER_NAME":"EARTH","CLASSIFICATION_TYPE":"U","SEMIMAJOR_AXIS":"6925.288","DECAY_DATE":null,"TLE_LINE2":"2 44723  53.0552 147.5770 0001259  72.4772 287.6354 15.06419708181016","OBJECT_TYPE":"PAYLOAD","TLE_LINE1":"1 44723U 19074L   23050.68510418  .00000883  00000-0  78155-4 0  9993","OBJECT_NAME":"STARLINK-1017","INCLINATION":"53.0552","MEAN_ELEMENT_THEORY":"SGP4","GP_ID":"226062935","REV_AT_EPOCH":"18101","PERIAPSIS":"546.281","ELEMENT_SET_NO":"999","MEAN_MOTION_DOT":"0.00000883","OBJECT_ID":"2019-074L","PERIOD":"95.591","RA_OF_ASC_NODE":"147.5770","ARG_OF_PERICENTER":"72.4772","LAUNCH_DATE":"2019-11-11","EPOCH":"2023-02-19T16:26:33.001152","MEAN_MOTION":"15.06419708","MEAN_ANOMALY":"287.6354","BSTAR":"0.00007815500000","TIME_SYSTEM":"UTC"}];
